{
    "links": {
        "self": "http://www.neowsapp.com/rest/v1/neo/3145495?api_key=iIulBulltgU6a56xZRHN4H3l9WmuAYTsLGpBGhQ2"
    },
    "id": "3145495",
    "neo_reference_id": "3145495",
    "name": "(2002 XV90)",
    "designation": "2002 XV90",
    "nasa_jpl_url": "http://ssd.jpl.nasa.gov/sbdb.cgi?sstr=3145495",
    "absolute_magnitude_h": 25.5,
    "estimated_diameter": {
        "kilometers": {
            "estimated_diameter_min": 0.0211132445,
            "estimated_diameter_max": 0.0472106499
        },
        "meters": {
            "estimated_diameter_min": 21.113244479,
            "estimated_diameter_max": 47.2106498806
        },
        "miles": {
            "estimated_diameter_min": 0.0131191578,
            "estimated_diameter_max": 0.0293353287
        },
        "feet": {
            "estimated_diameter_min": 69.2691770164,
            "estimated_diameter_max": 154.8905885541
        }
    },
    "is_potentially_hazardous_asteroid": false,
    "close_approach_data": [
        {
            "close_approach_date": "2000-10-15",
            "close_approach_date_full": "2000-Oct-15 12:29",
            "epoch_date_close_approach": 971612940000,
            "relative_velocity": {
                "kilometers_per_second": "14.588461395",
                "kilometers_per_hour": "52518.4610219622",
                "miles_per_hour": "32632.929294452"
            },
            "miss_distance": {
                "astronomical": "0.3101979866",
                "lunar": "120.6670167874",
                "kilometers": "46404958.073648542",
                "miles": "28834703.8639801996"
            },
            "orbiting_body": "Earth"
        },
        {
            "close_approach_date": "2002-12-10",
            "close_approach_date_full": "2002-Dec-10 22:33",
            "epoch_date_close_approach": 1039559580000,
            "relative_velocity": {
                "kilometers_per_second": "7.7279629139",
                "kilometers_per_hour": "27820.6664901993",
                "miles_per_hour": "17286.6802422019"
            },
            "miss_distance": {
                "astronomical": "0.0023721702",
                "lunar": "0.9227742078",
                "kilometers": "354871.609197474",
                "miles": "220506.9929101812"
            },
            "orbiting_body": "Moon"
        },
        {
            "close_approach_date": "2002-12-11",
            "close_approach_date_full": "2002-Dec-11 08:24",
            "epoch_date_close_approach": 1039595040000,
            "relative_velocity": {
                "kilometers_per_second": "8.009618094",
                "kilometers_per_hour": "28834.6251384884",
                "miles_per_hour": "17916.7147145235"
            },
            "miss_distance": {
                "astronomical": "0.0007869147",
                "lunar": "0.3061098183",
                "kilometers": "117720.762991689",
                "miles": "73148.2901917482"
            },
            "orbiting_body": "Earth"
        }
    ],
    "orbital_data": {
        "orbit_id": "9",
        "orbit_determination_date": "2017-04-06 09:14:30",
        "first_observation_date": "2002-12-13",
        "last_observation_date": "2003-01-01",
        "data_arc_in_days": 19,
        "observations_used": 16,
        "orbit_uncertainty": "8",
        "minimum_orbit_intersection": ".000852474",
        "jupiter_tisserand_invariant": "4.296",
        "epoch_osculation": "2452630.5",
        "eccentricity": ".377270938199526",
        "semi_major_axis": "1.581480425771216",
        "inclination": "9.975201449251136",
        "ascending_node_longitude": "79.16120691190459",
        "orbital_period": "726.4306473033315",
        "perihelion_distance": ".9848338217963233",
        "perihelion_argument": "356.0788989379644",
        "aphelion_distance": "2.178127029746108",
        "perihelion_time": "2452616.587465233328",
        "mean_anomaly": "6.894687792419837",
        "mean_motion": ".4955738050650785",
        "equinox": "J2000",
        "orbit_class": {
            "orbit_class_type": "APO",
            "orbit_class_description": "Near-Earth asteroid orbits which cross the Earth’s orbit similar to that of 1862 Apollo",
            "orbit_class_range": "a (semi-major axis) > 1.0 AU; q (perihelion) < 1.017 AU"
        }
    },
    "is_sentry_object": false
}